NORAD_CAT_ID,OBJECT_NAME,OBJECT_TYPE,EPOCH,MEAN_MOTION,ECCENTRICITY,INCLINATION,RA_OF_ASC_NODE,ARG_OF_PERICENTER,MEAN_ANOMALY,BSTAR,MEAN_MOTION_DOT,MEAN_MOTION_DDOT,TLE_LINE0,TLE_LINE1,TLE_LINE2,SEMIMAJOR_AXIS,PERIOD,APOGEE,PERIGEE,DECAYED
53023.0,STARLINK-4284,PAYLOAD,2023-10-18 11:37:18,15.08842161,0.0001621,53.2202,44.0872,102.9837,257.1336,9.2982e-05,1.192e-05,0.0,0 STARLINK-4284,1 53023U 22076AP  23291.48424075  .00001192  00000-0  92982-4 0  9998,2 53023  53.2202  44.0872 0001621 102.9837 257.1336 15.08842161 71634,6917.874,95.437,540.86,538.617,0.0
53023.0,STARLINK-4284,PAYLOAD,2023-10-18 14:48:04,15.0884244,0.0001705,53.2201,43.4894,106.7814,253.3365,3.2922e-05,2.36e-06,0.0,0 STARLINK-4284,1 53023U 22076AP  23291.61672034  .00000236  00000-0  32922-4 0  9999,2 53023  53.2201  43.4894 0001705 106.7814 253.3365 15.08842440 71180,6917.873,95.437,540.917,538.558,0.0
53023.0,STARLINK-4284,PAYLOAD,2023-10-19 11:28:04,15.08861167,7.91e-05,53.2176,39.6205,81.7253,278.3829,0.0003645,5.521e-05,0.0,0 STARLINK-4284,1 53023U 22076AP  23292.47782812  .00005521  00000-0  36450-3 0  9991,2 53023  53.2176  39.6205 0000791  81.7253 278.3829 15.08861167 71782,6917.816,95.436,540.228,539.133,0.0
53023.0,STARLINK-4284,PAYLOAD,2023-10-19 16:14:12,15.0888578,0.0001461,53.2163,38.7301,98.199,261.9168,0.0007776,0.00012125,0.0,0 STARLINK-4284,1 53023U 22076AP  23292.67653721  .00012125  00000-0  77760-3 0  9996,2 53023  53.2163  38.7301 0001461  98.1990 261.9168 15.08885780 71815,6917.74,95.435,540.616,538.595,0.0
53023.0,STARLINK-4284,PAYLOAD,2023-10-20 00:11:09,15.08861387,0.0002661,53.2186,37.2447,77.9229,282.2061,0.00037379,5.669e-05,0.0,0 STARLINK-4284,1 53023U 22076AP  23293.00774775  .00005669  00000-0  37379-3 0  9994,2 53023  53.2186  37.2447 0002661  77.9229 282.2061 15.08861387 71868,6917.815,95.436,541.521,537.839,0.0
53023.0,STARLINK-4284,PAYLOAD,2023-10-20 11:18:51,15.08835714,0.0002021,53.2185,35.161,83.1624,276.9598,-0.00031091,-5.232e-05,0.0,0 STARLINK-4284,1 53023U 22076AP  23293.47143006 -.00005232  00000-0 -31091-3 0  9995,2 53023  53.2185  35.1610 0002021  83.1624 276.9598 15.08835714 71932,6917.893,95.438,541.157,538.36,0.0
53023.0,STARLINK-4284,PAYLOAD,2023-10-21 12:45:02,15.08834221,0.0001239,53.217,30.4059,70.0643,290.0483,0.00011704,1.575e-05,0.0,0 STARLINK-4284,1 53023U 22076AP  23294.53127608  .00001575  00000-0  11704-3 0  9996,2 53023  53.2170  30.4059 0001239  70.0643 290.0483 15.08834221 72097,6917.898,95.438,540.62,538.906,0.0
53023.0,STARLINK-4284,PAYLOAD,2023-10-22 12:35:50,15.08830228,0.0001494,53.2166,25.9447,84.0123,276.1039,0.00022544,3.301e-05,0.0,0 STARLINK-4284,1 53023U 22076AP  23295.52488735  .00003301  00000-0  22544-3 0  9990,2 53023  53.2166  25.9447 0001494  84.0123 276.1039 15.08830228 72245,6917.91,95.438,540.809,538.742,0.0
53023.0,STARLINK-4284,PAYLOAD,2023-10-23 12:26:37,15.08839865,0.0001561,53.2183,21.484,88.5039,271.6132,0.00029565,4.42e-05,0.0,0 STARLINK-4284,1 53023U 22076AP  23296.51849024  .00004420  00000-0  29565-3 0  9995,2 53023  53.2183  21.4840 0001561  88.5039 271.6132 15.08839865 71926,6917.881,95.438,540.826,538.666,0.0
53023.0,STARLINK-4284,PAYLOAD,2023-10-24 12:17:24,15.08852653,0.0001477,53.2185,17.0239,86.8863,273.2298,0.00035873,5.428e-05,0.0,0 STARLINK-4284,1 53023U 22076AP  23297.51208537  .00005428  00000-0  35873-3 0  9992,2 53023  53.2185  17.0239 0001477  86.8863 273.2298 15.08852653 72543,6917.842,95.437,540.728,538.685,0.0
53023.0,STARLINK-4284,PAYLOAD,2023-10-25 21:40:30,15.08840857,0.0001625,53.2185,10.7798,86.4663,273.6515,5.8178e-06,-1.95e-06,0.0,0 STARLINK-4284,1 53023U 22076AP  23298.90312623 -.00000195  00000-0  58178-5 0  9990,2 53023  53.2185  10.7798 0001625  86.4663 273.6515 15.08840857 72754,6917.878,95.438,540.867,538.619,0.0
53023.0,STARLINK-4284,PAYLOAD,2023-10-26 11:58:58,15.08841957,0.000162,53.219,8.1039,93.3843,266.7335,4.1866e-07,-2.81e-06,0.0,0 STARLINK-4284,1 53023U 22076AP  23299.49928496 -.00000281  00000-0  41866-6 0  9999,2 53023  53.2190   8.1039 0001620  93.3843 266.7335 15.08841957 72374,6917.874,95.437,540.86,538.619,0.0
53023.0,STARLINK-4284,PAYLOAD,2023-10-27 03:52:49,15.08841223,0.000144,53.2177,5.131,89.3065,270.8092,0.00013906,1.926e-05,0.0,0 STARLINK-4284,1 53023U 22076AP  23300.16168514  .00001926  00000-0  13906-3 0  9990,2 53023  53.2177   5.1310 0001440  89.3065 270.8092 15.08841223 72944,6917.877,95.437,540.738,538.745,0.0
53023.0,STARLINK-4284,PAYLOAD,2023-10-27 13:25:07,15.08852401,0.0001643,53.2181,3.3447,95.2998,264.8182,0.00020672,3.005e-05,0.0,0 STARLINK-4284,1 53023U 22076AP  23300.55911860  .00003005  00000-0  20672-3 0  9991,2 53023  53.2181   3.3447 0001643  95.2998 264.8182 15.08852401 72534,6917.842,95.437,540.844,538.571,0.0
53023.0,STARLINK-4284,PAYLOAD,2023-10-27 21:22:04,15.08841051,0.0002065,53.2186,1.8605,80.7849,279.3377,0.00010819,1.434e-05,0.0,0 STARLINK-4284,1 53023U 22076AP  23300.89032674  .00001434  00000-0  10819-3 0  9991,2 53023  53.2186   1.8605 0002065  80.7849 279.3377 15.08841051 72582,6917.877,95.437,541.171,538.314,0.0
53023.0,STARLINK-4284,PAYLOAD,2023-10-27 22:57:27,15.0884156,0.0001713,53.2177,1.5645,81.1918,278.9268,0.00011794,1.59e-05,0.0,0 STARLINK-4284,1 53023U 22076AP  23300.95656511  .00001590  00000-0  11794-3 0  9996,2 53023  53.2177   1.5645 0001713  81.1918 278.9268 15.08841560 73067,6917.876,95.437,540.926,538.556,0.0
53023.0,STARLINK-4284,PAYLOAD,2023-10-28 11:40:32,15.08832391,0.0001564,53.2171,359.183,81.313,278.804,-3.5247e-05,-8.49e-06,0.0,0 STARLINK-4284,1 53023U 22076AP  23301.48649280 -.00000849  00000-0 -35247-4 0  9998,2 53023  53.2171 359.1830 0001564  81.3130 278.8040 15.08832391 73149,6917.904,95.438,540.851,538.687,0.0
53023.0,STARLINK-4284,PAYLOAD,2023-10-28 21:12:51,15.08842359,0.0001593,53.2172,357.3995,80.1555,279.9616,0.00014872,2.08e-05,0.0,0 STARLINK-4284,1 53023U 22076AP  23301.88393000  .00002080  00000-0  14872-3 0  9995,2 53023  53.2172 357.3995 0001593  80.1555 279.9616 15.08842359 72732,6917.873,95.437,540.84,538.636,0.0
53023.0,STARLINK-4284,PAYLOAD,2023-10-29 09:55:55,15.08861485,0.0001519,53.218,355.0206,87.6543,272.4623,0.00058121,8.979e-05,0.0,0 STARLINK-4284,1 53023U 22076AP  23302.41384227  .00008979  00000-0  58121-3 0  9994,2 53023  53.2180 355.0206 0001519  87.6543 272.4623 15.08861485 73286,6917.815,95.436,540.731,538.629,0.0
53023.0,STARLINK-4284,PAYLOAD,2023-10-29 21:03:38,15.08837197,0.0001786,53.218,352.9379,89.5072,270.6125,0.00011586,1.556e-05,0.0,0 STARLINK-4284,1 53023U 22076AP  23302.87753107  .00001556  00000-0  11586-3 0  9999,2 53023  53.2180 352.9379 0001786  89.5072 270.6125 15.08837197 73355,6917.889,95.438,540.989,538.518,0.0
53023.0,STARLINK-4284,PAYLOAD,2023-10-30 09:46:43,15.08836241,0.0001768,53.2168,350.5609,80.261,279.8582,3.193e-05,2.2e-06,0.0,0 STARLINK-4284,1 53023U 22076AP  23303.40745330  .00000220  00000-0  31930-4 0  9991,2 53023  53.2168 350.5609 0001768  80.2610 279.8582 15.08836241 72960,6917.892,95.438,540.98,538.534,0.0
53023.0,STARLINK-4284,PAYLOAD,2023-10-31 09:37:31,15.08839062,0.0001888,53.2178,346.0992,92.1338,267.9871,0.00020625,2.996e-05,0.0,0 STARLINK-4284,1 53023U 22076AP  23304.40105803  .00002996  00000-0  20625-3 0  9997,2 53023  53.2178 346.0992 0001888  92.1338 267.9871 15.08839062 73580,6917.883,95.438,541.054,538.442,0.0
53023.0,STARLINK-4284,PAYLOAD,2023-11-01 09:28:18,15.08846998,0.0001785,53.2182,341.64,96.1934,263.9261,0.00040172,6.112e-05,0.0,0 STARLINK-4284,1 53023U 22076AP  23305.39465881  .00006112  00000-0  40172-3 0  9994,2 53023  53.2182 341.6400 0001785  96.1934 263.9261 15.08846998 73262,6917.859,95.437,540.959,538.489,0.0
53023.0,STARLINK-4284,PAYLOAD,2023-11-01 19:00:37,15.08844328,0.0001715,53.218,339.8563,96.0563,264.0625,0.00023418,3.441e-05,0.0,0 STARLINK-4284,1 53023U 22076AP  23305.79209885  .00003441  00000-0  23418-3 0  9994,2 53023  53.2180 339.8563 0001715  96.0563 264.0625 15.08844328 73798,6917.867,95.437,540.919,538.546,0.0
53023.0,STARLINK-4284,PAYLOAD,2023-11-02 09:19:05,15.08842778,0.0001767,53.2184,337.1799,98.1978,261.9214,0.00015532,2.185e-05,0.0,0 STARLINK-4284,1 53023U 22076AP  23306.38825814  .00002185  00000-0  15532-3 0  9998,2 53023  53.2184 337.1799 0001767  98.1978 261.9214 15.08842778 73410,6917.872,95.437,540.959,538.515,0.0
53023.0,STARLINK-4284,PAYLOAD,2023-11-03 02:48:20,15.08839255,0.0001701,53.2176,333.9099,96.8158,263.3028,1.4508e-05,-5.7e-07,0.0,0 STARLINK-4284,1 53023U 22076AP  23307.11690082 -.00000057  00000-0  14508-4 0  9997,2 53023  53.2176 333.9099 0001701  96.8158 263.3028 15.08839255 73999,6917.883,95.438,540.924,538.571,0.0
53023.0,STARLINK-4284,PAYLOAD,2023-11-03 07:34:29,15.08844223,0.000171,53.2176,333.0175,96.8576,263.2611,7.2608e-05,8.68e-06,0.0,0 STARLINK-4284,1 53023U 22076AP  23307.31561787  .00000868  00000-0  72608-4 0  9992,2 53023  53.2176 333.0175 0001710  96.8576 263.2611 15.08844223 73559,6917.867,95.437,540.915,538.55,0.0
53023.0,STARLINK-4284,PAYLOAD,2023-11-03 18:42:11,15.08842927,0.0001644,53.2172,330.9333,86.8578,273.2603,7.5168e-05,9.09e-06,0.0,0 STARLINK-4284,1 53023U 22076AP  23307.77929877  .00000909  00000-0  75168-4 0  9990,2 53023  53.2172 330.9333 0001644  86.8578 273.2603 15.08842927 73623,6917.871,95.437,540.874,538.599,0.0
53023.0,STARLINK-4284,PAYLOAD,2023-11-04 10:36:03,15.08841699,0.0001709,53.2186,327.9578,84.06,276.0587,6.2426e-05,7.06e-06,0.0,0 STARLINK-4284,1 53023U 22076AP  23308.44170352  .00000706  00000-0  62426-4 0  9999,2 53023  53.2186 327.9578 0001709  84.0600 276.0587 15.08841699 74193,6917.875,95.437,540.922,538.558,0.0
53023.0,STARLINK-4284,PAYLOAD,2023-11-04 18:32:58,15.08837344,0.0001454,53.2163,326.4727,92.7461,267.3698,5.8679e-05,6.46e-06,0.0,0 STARLINK-4284,1 53023U 22076AP  23308.77290300  .00000646  00000-0  58679-4 0  9999,2 53023  53.2163 326.4727 0001454  92.7461 267.3698 15.08837344 73777,6917.889,95.438,540.759,538.748,0.0
